[
  {
    "CCSDS_OMM_VERS": "3.0",
    "COMMENT": "GENERATED VIA SPACE-TRACK.ORG API",
    "CREATION_DATE": "2010-10-11T14:08:12",
    "ORIGINATOR": "18 SPCS",
    "OBJECT_NAME": "IRIDIUM 33 DEB",
    "OBJECT_ID": "1997-051CF",
    "CENTER_NAME": "EARTH",
    "REF_FRAME": "TEME",
    "TIME_SYSTEM": "UTC",
    "MEAN_ELEMENT_THEORY": "SGP4",
    "EPOCH": "2010-10-11T06:42:54.726048",
    "MEAN_MOTION": "15.76236520",
    "ECCENTRICITY": "0.00291380",
    "INCLINATION": "86.2312",
    "RA_OF_ASC_NODE": "209.4133",
    "ARG_OF_PERICENTER": "133.9572",
    "MEAN_ANOMALY": "228.2184",
    "EPHEMERIS_TYPE": "0",
    "CLASSIFICATION_TYPE": "U",
    "NORAD_CAT_ID": "34072",
    "ELEMENT_SET_NO": "999",
    "REV_AT_EPOCH": "8780",
    "BSTAR": "0.11413000000000",
    "MEAN_MOTION_DOT": "0.25211910",
    "MEAN_MOTION_DDOT": "0.0000000000000",
    "SEMIMAJOR_AXIS": "6719.256",
    "PERIOD": "91.356",
    "APOAPSIS": "360.699",
    "PERIAPSIS": "321.542",
    "OBJECT_TYPE": "DEBRIS",
    "RCS_SIZE": "SMALL",
    "COUNTRY_CODE": "US",
    "LAUNCH_DATE": "1997-09-14",
    "SITE": "TTMTR",
    "DECAY_DATE": "2010-10-11",
    "FILE": "976120",
    "GP_ID": "79933414",
    "TLE_LINE0": "0 IRIDIUM 33 DEB",
    "TLE_LINE1": "1 34072U 97051CF  10284.27980007  .25211910  00000-0  11413+0 0  9996",
    "TLE_LINE2": "2 34072 086.2312 209.4133 0029138 133.9572 228.2184 15.76236520 87802"
  },
  {
    "CCSDS_OMM_VERS": "3.0",
    "COMMENT": "GENERATED VIA SPACE-TRACK.ORG API",
    "CREATION_DATE": "2015-09-03T15:46:37",
    "ORIGINATOR": "18 SPCS",
    "OBJECT_NAME": "IRIDIUM 33 DEB",
    "OBJECT_ID": "1997-051CG",
    "CENTER_NAME": "EARTH",
    "REF_FRAME": "TEME",
    "TIME_SYSTEM": "UTC",
    "MEAN_ELEMENT_THEORY": "SGP4",
    "EPOCH": "2015-09-02T17:41:14.227872",
    "MEAN_MOTION": "16.13469217",
    "ECCENTRICITY": "0.00230780",
    "INCLINATION": "86.3300",
    "RA_OF_ASC_NODE": "174.5083",
    "ARG_OF_PERICENTER": "191.6583",
    "MEAN_ANOMALY": "245.3113",
    "EPHEMERIS_TYPE": "0",
    "CLASSIFICATION_TYPE": "U",
    "NORAD_CAT_ID": "34073",
    "ELEMENT_SET_NO": "999",
    "REV_AT_EPOCH": "34629",
    "BSTAR": "0.01343400000000",
    "MEAN_MOTION_DOT": "0.16407272",
    "MEAN_MOTION_DDOT": "-0.0000015181000",
    "SEMIMAJOR_AXIS": "6615.480",
    "PERIOD": "89.248",
    "APOAPSIS": "252.612",
    "PERIAPSIS": "222.078",
    "OBJECT_TYPE": "DEBRIS",
    "RCS_SIZE": "SMALL",
    "COUNTRY_CODE": "US",
    "LAUNCH_DATE": "1997-09-14",
    "SITE": "TTMTR",
    "DECAY_DATE": "2015-09-02",
    "FILE": "1920814",
    "GP_ID": "100311592",
    "TLE_LINE0": "0 IRIDIUM 33 DEB",
    "TLE_LINE1": "1 34073U 97051CG  15245.73697023 +.16407272 -15181-5 +13434-1 0  9990",
    "TLE_LINE2": "2 34073 086.3300 174.5083 0023078 191.6583 245.3113 16.13469217346293"
  },
  {
    "CCSDS_OMM_VERS": "3.0",
    "COMMENT": "GENERATED VIA SPACE-TRACK.ORG API",
    "CREATION_DATE": "2014-05-29T15:03:38",
    "ORIGINATOR": "18 SPCS",
    "OBJECT_NAME": "IRIDIUM 33 DEB",
    "OBJECT_ID": "1997-051CH",
    "CENTER_NAME": "EARTH",
    "REF_FRAME": "TEME",
    "TIME_SYSTEM": "UTC",
    "MEAN_ELEMENT_THEORY": "SGP4",
    "EPOCH": "2014-05-29T14:25:21.829440",
    "MEAN_MOTION": "16.20292696",
    "ECCENTRICITY": "0.00400630",
    "INCLINATION": "86.2703",
    "RA_OF_ASC_NODE": "3.6070",
    "ARG_OF_PERICENTER": "318.3092",
    "MEAN_ANOMALY": "49.9456",
    "EPHEMERIS_TYPE": "0",
    "CLASSIFICATION_TYPE": "U",
    "NORAD_CAT_ID": "34074",
    "ELEMENT_SET_NO": "999",
    "REV_AT_EPOCH": "27783",
    "BSTAR": "0.01809000000000",
    "MEAN_MOTION_DOT": "0.41101904",
    "MEAN_MOTION_DDOT": "-0.0000009090400",
    "SEMIMAJOR_AXIS": "6596.898",
    "PERIOD": "88.872",
    "APOAPSIS": "245.192",
    "PERIAPSIS": "192.334",
    "OBJECT_TYPE": "DEBRIS",
    "RCS_SIZE": "SMALL",
    "COUNTRY_CODE": "US",
    "LAUNCH_DATE": "1997-09-14",
    "SITE": "TTMTR",
    "DECAY_DATE": "2014-05-29",
    "FILE": "1689577",
    "GP_ID": "96050479",
    "TLE_LINE0": "0 IRIDIUM 33 DEB",
    "TLE_LINE1": "1 34074U 97051CH  14149.60094710  .41101904 -90904-6  18090-1 0  9994",
    "TLE_LINE2": "2 34074 086.2703 003.6070 0040063 318.3092 049.9456 16.20292696277838"
  },
  {
    "CCSDS_OMM_VERS": "3.0",
    "COMMENT": "GENERATED VIA SPACE-TRACK.ORG API",
    "CREATION_DATE": "2016-09-14T15:20:45",
    "ORIGINATOR": "18 SPCS",
    "OBJECT_NAME": "IRIDIUM 33 DEB",
    "OBJECT_ID": "1997-051CJ",
    "CENTER_NAME": "EARTH",
    "REF_FRAME": "TEME",
    "TIME_SYSTEM": "UTC",
    "MEAN_ELEMENT_THEORY": "SGP4",
    "EPOCH": "2016-09-14T05:45:58.661856",
    "MEAN_MOTION": "15.95594931",
    "ECCENTRICITY": "0.00229650",
    "INCLINATION": "86.3552",
    "RA_OF_ASC_NODE": "34.6764",
    "ARG_OF_PERICENTER": "317.6092",
    "MEAN_ANOMALY": "42.3417",
    "EPHEMERIS_TYPE": "0",
    "CLASSIFICATION_TYPE": "U",
    "NORAD_CAT_ID": "34075",
    "ELEMENT_SET_NO": "999",
    "REV_AT_EPOCH": "40142",
    "BSTAR": "0.01660900000000",
    "MEAN_MOTION_DOT": "0.05492207",
    "MEAN_MOTION_DDOT": "0.0411120000000",
    "SEMIMAJOR_AXIS": "6664.794",
    "PERIOD": "90.248",
    "APOAPSIS": "301.964",
    "PERIAPSIS": "271.353",
    "OBJECT_TYPE": "DEBRIS",
    "RCS_SIZE": "SMALL",
    "COUNTRY_CODE": "US",
    "LAUNCH_DATE": "1997-09-14",
    "SITE": "TTMTR",
    "DECAY_DATE": "2016-09-16",
    "FILE": "2086400",
    "GP_ID": "107130020",
    "TLE_LINE0": "0 IRIDIUM 33 DEB",
    "TLE_LINE1": "1 34075U 97051CJ  16258.24026229  .05492207  41112-1  16609-1 0  9992",
    "TLE_LINE2": "2 34075  86.3552  34.6764 0022965 317.6092  42.3417 15.95594931401425"
  },
  {
    "CCSDS_OMM_VERS": "3.0",
    "COMMENT": "GENERATED VIA SPACE-TRACK.ORG API",
    "CREATION_DATE": "2023-01-21T08:36:13",
    "ORIGINATOR": "18 SPCS",
    "OBJECT_NAME": "IRIDIUM 33 DEB",
    "OBJECT_ID": "1997-051CK",
    "CENTER_NAME": "EARTH",
    "REF_FRAME": "TEME",
    "TIME_SYSTEM": "UTC",
    "MEAN_ELEMENT_THEORY": "SGP4",
    "EPOCH": "2023-01-20T23:49:04.734624",
    "MEAN_MOTION": "16.26498894",
    "ECCENTRICITY": "0.00182420",
    "INCLINATION": "86.2786",
    "RA_OF_ASC_NODE": "345.8441",
    "ARG_OF_PERICENTER": "165.2848",
    "MEAN_ANOMALY": "194.8988",
    "EPHEMERIS_TYPE": "0",
    "CLASSIFICATION_TYPE": "U",
    "NORAD_CAT_ID": "34076",
    "ELEMENT_SET_NO": "999",
    "REV_AT_EPOCH": "74763",
    "BSTAR": "0.00832260000000",
    "MEAN_MOTION_DOT": "0.27499452",
    "MEAN_MOTION_DDOT": "-0.0000015468000",
    "SEMIMAJOR_AXIS": "6580.103",
    "PERIOD": "88.534",
    "APOAPSIS": "213.971",
    "PERIAPSIS": "189.964",
    "OBJECT_TYPE": "DEBRIS",
    "RCS_SIZE": "SMALL",
    "COUNTRY_CODE": "US",
    "LAUNCH_DATE": "1997-09-14",
    "SITE": "TTMTR",
    "DECAY_DATE": "2023-01-21",
    "FILE": "3756672",
    "GP_ID": "223566328",
    "TLE_LINE0": "0 IRIDIUM 33 DEB",
    "TLE_LINE1": "1 34076U 97051CK  23020.99241591  .27499452 -15468-5  83226-2 0  9994",
    "TLE_LINE2": "2 34076  86.2786 345.8441 0018242 165.2848 194.8988 16.26498894747630"
  },
  {
    "CCSDS_OMM_VERS": "3.0",
    "COMMENT": "GENERATED VIA SPACE-TRACK.ORG API",
    "CREATION_DATE": "2025-11-26T23:16:29",
    "ORIGINATOR": "18 SPCS",
    "OBJECT_NAME": "IRIDIUM 33 DEB",
    "OBJECT_ID": "1997-051CL",
    "CENTER_NAME": "EARTH",
    "REF_FRAME": "TEME",
    "TIME_SYSTEM": "UTC",
    "MEAN_ELEMENT_THEORY": "SGP4",
    "EPOCH": "2025-11-26T17:28:21.129312",
    "MEAN_MOTION": "14.64437820",
    "ECCENTRICITY": "0.00113810",
    "INCLINATION": "86.3863",
    "RA_OF_ASC_NODE": "58.5566",
    "ARG_OF_PERICENTER": "88.9008",
    "MEAN_ANOMALY": "34.8027",
    "EPHEMERIS_TYPE": "0",
    "CLASSIFICATION_TYPE": "U",
    "NORAD_CAT_ID": "34077",
    "ELEMENT_SET_NO": "999",
    "REV_AT_EPOCH": "88098",
    "BSTAR": "0.00208000000000",
    "MEAN_MOTION_DOT": "0.00011043",
    "MEAN_MOTION_DDOT": "0.0000000000000",
    "SEMIMAJOR_AXIS": "7057.018",
    "PERIOD": "98.331",
    "APOAPSIS": "686.914",
    "PERIAPSIS": "670.851",
    "OBJECT_TYPE": "DEBRIS",
    "RCS_SIZE": "SMALL",
    "COUNTRY_CODE": "US",
    "LAUNCH_DATE": "1997-09-14",
    "SITE": "TTMTR",
    "DECAY_DATE": null,
    "FILE": "4903482",
    "GP_ID": "303674524",
    "TLE_LINE0": "0 IRIDIUM 33 DEB",
    "TLE_LINE1": "1 34077U 97051CL  25330.72802233  .00011043  00000-0  20800-2 0  9994",
    "TLE_LINE2": "2 34077  86.3863  58.5566 0011381  88.9008  34.8027 14.64437820880985"
  },
  {
    "CCSDS_OMM_VERS": "3.0",
    "COMMENT": "GENERATED VIA SPACE-TRACK.ORG API",
    "CREATION_DATE": "2013-01-07T22:42:22",
    "ORIGINATOR": "18 SPCS",
    "OBJECT_NAME": "IRIDIUM 33 DEB",
    "OBJECT_ID": "1997-051CM",
    "CENTER_NAME": "EARTH",
    "REF_FRAME": "TEME",
    "TIME_SYSTEM": "UTC",
    "MEAN_ELEMENT_THEORY": "SGP4",
    "EPOCH": "2013-01-07T10:25:42.232512",
    "MEAN_MOTION": "15.85045843",
    "ECCENTRICITY": "0.00199400",
    "INCLINATION": "86.2985",
    "RA_OF_ASC_NODE": "246.3127",
    "ARG_OF_PERICENTER": "100.2427",
    "MEAN_ANOMALY": "261.6632",
    "EPHEMERIS_TYPE": "0",
    "CLASSIFICATION_TYPE": "U",
    "NORAD_CAT_ID": "34078",
    "ELEMENT_SET_NO": "999",
    "REV_AT_EPOCH": "20314",
    "BSTAR": "0.11257000000000",
    "MEAN_MOTION_DOT": "0.16579996",
    "MEAN_MOTION_DDOT": "0.7270100000000",
    "SEMIMAJOR_AXIS": "6694.336",
    "PERIOD": "90.849",
    "APOAPSIS": "329.550",
    "PERIAPSIS": "302.853",
    "OBJECT_TYPE": "DEBRIS",
    "RCS_SIZE": "MEDIUM",
    "COUNTRY_CODE": "US",
    "LAUNCH_DATE": "1997-09-14",
    "SITE": "TTMTR",
    "DECAY_DATE": "2013-01-07",
    "FILE": "1417968",
    "GP_ID": "91861972",
    "TLE_LINE0": "0 IRIDIUM 33 DEB",
    "TLE_LINE1": "1 34078U 97051CM  13007.43451658  .16579996  72701+0  11257+0 0  9994",
    "TLE_LINE2": "2 34078 086.2985 246.3127 0019940 100.2427 261.6632 15.85045843203145"
  }
]